NUSAT-47                
1 66743U 25276CF  26186.19761853  .00010120  00000+0  46579-3 0  9998
2 66743  97.4179 259.5223 0000604   5.4777 354.6465 15.20508447 33165
NUSAT-53 (JANE GOODALL) 
1 68432U 26067S   26186.31929562  .00008670  00000+0  42007-3 0  9990
2 68432  97.4568 144.5694 0001784  18.0658 342.0640 15.18777785 14690
NUSAT-54 (BRANCA MARQU*)
1 68442U 26067AC  26186.30538408  .00008507  00000+0  42225-3 0  9996
2 68442  97.4554 144.4137 0004951  30.1884 329.9635 15.17928906 14681
