{"fetched_at":"2026-07-06T08:47:11.636Z","source":"https://celestrak.org/NORAD/elements/gp.php?NAME=NUSAT&FORMAT=JSON","constellation":"satellogic","records":[{"OBJECT_NAME":"NUSAT-47","OBJECT_ID":"2025-276CF","EPOCH":"2026-07-05T04:44:34.240128","CLASSIFICATION_TYPE":"U","MEAN_MOTION":15.20508447,"ECCENTRICITY":0.0000605,"INCLINATION":97.4179,"RA_OF_ASC_NODE":259.5223,"ARG_OF_PERICENTER":5.4777,"MEAN_ANOMALY":354.6465,"EPHEMERIS_TYPE":0,"NORAD_CAT_ID":66743,"ELEMENT_SET_NO":999,"REV_AT_EPOCH":3316,"BSTAR":0.00046579,"MEAN_MOTION_DOT":0.0001012,"MEAN_MOTION_DDOT":0},{"OBJECT_NAME":"NUSAT-53 (JANE GOODALL)","OBJECT_ID":"2026-067S","EPOCH":"2026-07-05T07:39:47.140704","CLASSIFICATION_TYPE":"U","MEAN_MOTION":15.18777785,"ECCENTRICITY":0.0001785,"INCLINATION":97.4568,"RA_OF_ASC_NODE":144.5694,"ARG_OF_PERICENTER":18.0658,"MEAN_ANOMALY":342.064,"EPHEMERIS_TYPE":0,"NORAD_CAT_ID":68432,"ELEMENT_SET_NO":999,"REV_AT_EPOCH":1469,"BSTAR":0.00042007,"MEAN_MOTION_DOT":0.0000867,"MEAN_MOTION_DDOT":0},{"OBJECT_NAME":"NUSAT-54 (BRANCA MARQUES)","OBJECT_ID":"2026-067AC","EPOCH":"2026-07-05T07:19:45.183648","CLASSIFICATION_TYPE":"U","MEAN_MOTION":15.17928906,"ECCENTRICITY":0.0004951,"INCLINATION":97.4554,"RA_OF_ASC_NODE":144.4137,"ARG_OF_PERICENTER":30.1884,"MEAN_ANOMALY":329.9635,"EPHEMERIS_TYPE":0,"NORAD_CAT_ID":68442,"ELEMENT_SET_NO":999,"REV_AT_EPOCH":1468,"BSTAR":0.00042225,"MEAN_MOTION_DOT":0.00008507,"MEAN_MOTION_DDOT":0}]}
